     2.100          NAVIGATION                              RINEX VERSION / TYPE
fic2rin                                 10/28/2011 00:10:07 PGM / RUN BY / DATE
                                                            END OF HEADER
23 11 10 27 14  0  0.0  .264429952949D-03 -.318323145621D-11  .000000000000D+00
     .760000000000D+02  .335625000000D+02  .481841499204D-08  .975224783672D+00
     .178068876266D-05  .755085167475D-02 -.447034835815D-06  .515371406746D+04
     .396000000000D+06 -.316649675369D-07 -.152076757428D+01  .186264514923D-06
     .962337549176D+00  .387625000000D+03 -.303722485501D+01 -.870679124423D-08
     .878608026122D-10  .100000000000D+01  .165900000000D+04  .000000000000D+00
     .240000000000D+01  .000000000000D+00 -.200234353542D-07  .760000000000D+02
     .388806000000D+06  .400000000000D+01
25 11 10 27 14  0  0.0  .253133475780D-04  .159161572810D-11  .000000000000D+00
     .500000000000D+02  .518750000000D+01  .435053836024D-08 -.228089803228D+01
     .214204192162D-06  .990794273093D-03  .123362988234D-04  .515357620811D+04
     .396000000000D+06 -.353902578354D-07  .548991220602D+00 -.335276126862D-07
     .966099396203D+00  .145562500000D+03  .933934959557D+00 -.778139555493D-08
     .692528846606D-09  .100000000000D+01  .165900000000D+04  .000000000000D+00
     .240000000000D+01  .000000000000D+00  .558793544769D-08  .500000000000D+02
     .388806000000D+06  .400000000000D+01
26 11 10 27 14  0  0.0 -.205121934414D-03 -.133013600134D-10  .000000000000D+00
     .780000000000D+02  .790625000000D+01  .435768151493D-08  .814143663940D+00
     .299885869026D-06  .204344680533D-01  .573694705963D-06  .515365341949D+04
     .396000000000D+06 -.216066837311D-06 -.145252858721D+01  .465661287308D-07
     .985344955435D+00  .383968750000D+03  .116353882126D+01 -.870821987517D-08
    -.103218585183D-09  .100000000000D+01  .165900000000D+04  .000000000000D+00
     .240000000000D+01  .000000000000D+00 -.605359673500D-08  .780000000000D+02
     .388806000000D+06  .400000000000D+01
27 11 10 27 14  0  0.0  .319442711771D-03  .386535248253D-11  .000000000000D+00
     .990000000000D+02 -.149437500000D+03  .385051753237D-08  .177009265279D+01
    -.797025859356D-05  .217126016505D-01  .691600143909D-05  .515361505890D+04
     .396000000000D+06  .428408384323D-06 -.527781331045D+00 -.111758708954D-06
     .981785558715D+00  .256468750000D+03 -.118896164132D+01 -.766853371092D-08
    -.353586156854D-09  .100000000000D+01  .165900000000D+04  .000000000000D+00
     .485000000000D+01  .630000000000D+02 -.419095158577D-08  .990000000000D+02
     .388806000000D+06  .400000000000D+01
28 11 10 27 14  0  0.0  .790907070041D-04  .318323145621D-11  .000000000000D+00
     .460000000000D+02 -.153437500000D+02  .400695261995D-08  .285573133795D+01
    -.840052962303D-06  .173622011207D-01  .121574848890D-04  .515370621872D+04
     .396000000000D+06  .180676579475D-06  .605592777736D+00 -.229105353355D-06
     .976492348060D+00  .151375000000D+03 -.187712672344D+01 -.731137597673D-08
     .642883921553D-09  .100000000000D+01  .165900000000D+04  .000000000000D+00
     .240000000000D+01  .000000000000D+00 -.102445483208D-07  .460000000000D+02
     .388806000000D+06  .400000000000D+01
29 11 10 27 14  0  0.0  .252117402852D-03  .329691829393D-11  .000000000000D+00
     .690000000000D+02  .212500000000D+01  .518700177373D-08 -.132033425372D+01
     .614672899246D-07  .210933608469D-02  .417977571487D-05  .515368894196D+04
     .396000000000D+06 -.124797224998D-06  .164902463492D+01 -.614672899246D-07
     .961841634576D+00  .297000000000D+03 -.117123892276D+01 -.841392190219D-08
    -.514307137242D-10  .100000000000D+01  .165900000000D+04  .000000000000D+00
     .240000000000D+01  .000000000000D+00 -.931322574615D-08  .690000000000D+02
     .388806000000D+06  .400000000000D+01
30 11 10 27 14  0  0.0  .614067539573D-04 -.818545231596D-11  .000000000000D+00
     .870000000000D+02 -.151562500000D+02  .434696678290D-08  .249931882447D+01
    -.892207026482D-06  .116462649312D-01  .133067369461D-04  .515544363976D+04
     .396000000000D+06  .912696123123D-07  .460050615846D+00 -.391155481339D-07
     .957442111798D+00  .118656250000D+03  .158401900694D+01 -.759460205995D-08
     .616454249222D-09  .100000000000D+01  .165900000000D+04  .000000000000D+00
     .485000000000D+01  .000000000000D+00 -.419095158577D-08  .870000000000D+02
     .388806000000D+06  .400000000000D+01
31 11 10 27 14  0  0.0  .161206349730D-03  .522959453519D-11  .000000000000D+00
     .680000000000D+02 -.155500000000D+03  .394409285873D-08 -.639161500168D+00
    -.836513936520D-05  .775307160802D-02  .921078026295D-05  .515376933670D+04
     .396000000000D+06 -.931322574615D-07 -.472216372793D+00 -.409781932831D-07
     .980571621978D+00  .211562500000D+03 -.950842670368D+00 -.801390523989D-08
    -.222866426138D-09  .100000000000D+01  .165900000000D+04  .000000000000D+00
     .240000000000D+01  .000000000000D+00 -.130385160446D-07  .680000000000D+02
     .388806000000D+06  .400000000000D+01
32 11 10 27 14  0  0.0 -.352207571268D-03 -.613908923697D-11  .000000000000D+00
     .830000000000D+02  .157781250000D+03  .452375986133D-08  .119379567564D+00
     .807084143162D-05  .121845909161D-01  .958889722824D-05  .515354459381D+04
     .396000000000D+06  .106170773506D-06 -.249357691636D+01 -.197440385818D-06
     .953798035528D+00  .194437500000D+03 -.702569318775D+00 -.832677541505D-08
     .190365072327D-09  .100000000000D+01  .165900000000D+04  .000000000000D+00
     .240000000000D+01  .000000000000D+00 -.279396772385D-08  .830000000000D+02
     .388806000000D+06  .400000000000D+01
 9 11 10 27 13 59 44.0  .114456750453D-03  .238742359215D-11  .000000000000D+00
     .300000000000D+01 -.141781250000D+03  .394802159380D-08 -.131051882974D+01
    -.708177685738D-05  .171843400458D-01  .839307904243D-05  .515365863037D+04
     .395984000000D+06 -.212341547012D-06 -.501468793468D+00  .355765223503D-06
     .984277886896D+00  .232593750000D+03  .160111051732D+01 -.799533303771D-08
    -.260010830495D-09  .100000000000D+01  .165900000000D+04  .000000000000D+00
     .240000000000D+01  .000000000000D+00 -.558793544769D-08  .300000000000D+01
     .389226000000D+06  .400000000000D+01
16 11 10 27 13 59 44.0 -.205658841878D-03 -.204636307899D-11  .000000000000D+00
     .120000000000D+02 -.406250000000D+01  .409374194936D-08  .310319438946D+01
    -.800937414169D-07  .613545824308D-02  .128317624331D-04  .515354517746D+04
     .395984000000D+06 -.100582838058D-06  .598587619383D+00  .614672899246D-07
     .978177754035D+00  .140562500000D+03 -.735357745573D-01 -.752995651006D-08
     .777889545079D-09  .100000000000D+01  .165900000000D+04  .000000000000D+00
     .240000000000D+01  .000000000000D+00 -.977888703346D-08  .120000000000D+02
     .391206000000D+06  .400000000000D+01
27 11 10 27 13 59 44.0  .319439917803D-03  .386535248253D-11  .000000000000D+00
     .600000000000D+01 -.149437500000D+03  .385016037463D-08  .176775872206D+01
    -.797025859356D-05  .217126032803D-01  .691600143909D-05  .515361505699D+04
     .395984000000D+06  .428408384323D-06 -.527781206697D+00 -.111758708954D-06
     .981785566030D+00  .256468750000D+03 -.118896148333D+01 -.766853371092D-08
    -.353228999120D-09  .100000000000D+01  .165900000000D+04  .000000000000D+00
     .240000000000D+01  .630000000000D+02 -.419095158577D-08  .600000000000D+01
     .395766000000D+06  .400000000000D+01
 9 11 10 27 15 59 44.0  .114474445581D-03  .238742359215D-11  .000000000000D+00
     .140000000000D+02 -.139593750000D+03  .389837666875D-08 -.260285421681D+00
    -.751949846745D-05  .171838649549D-01  .779330730438D-05  .515365913010D+04
     .403184000000D+06 -.270083546638D-06 -.501527879266D+00  .372529029846D-07
     .984275800775D+00  .246312500000D+03  .160106199964D+01 -.816926885427D-08
    -.201794119821D-09  .100000000000D+01  .165900000000D+04  .000000000000D+00
     .240000000000D+01  .000000000000D+00 -.558793544769D-08  .140000000000D+02
     .396006000000D+06  .400000000000D+01
16 11 10 27 15 59 44.0 -.205674208701D-03 -.204636307899D-11  .000000000000D+00
     .190000000000D+02  .581250000000D+01  .401338145916D-08 -.212959614102D+01
     .102445483208D-06  .613436335698D-02  .128317624331D-04  .515354771805D+04
     .403184000000D+06 -.108033418655D-06  .598532803842D+00 -.577419996262D-07
     .978183093686D+00  .144750000000D+03 -.736746888694D-01 -.762317467868D-08
     .819676999980D-09  .100000000000D+01  .165900000000D+04  .000000000000D+00
     .240000000000D+01  .000000000000D+00 -.977888703346D-08  .190000000000D+02
     .396006000000D+06  .400000000000D+01
27 11 10 27 15 59 44.0  .319468323141D-03  .386535248253D-11  .000000000000D+00
     .800000000000D+01 -.161656250000D+03  .387337562736D-08  .281804230382D+01
    -.844150781631D-05  .217138367007D-01  .639446079731D-05  .515361143684D+04
     .403184000000D+06  .329688191414D-06 -.527835827669D+00  .104308128357D-06
     .981782919611D+00  .264093750000D+03 -.118903181604D+01 -.759603069088D-08
    -.355014787791D-09  .100000000000D+01  .165900000000D+04  .000000000000D+00
     .240000000000D+01  .630000000000D+02 -.419095158577D-08  .800000000000D+01
     .396006000000D+06  .400000000000D+01
 1 11 10 27 16  0  0.0  .568539835513D-04  .254658516496D-10  .000000000000D+00
     .550000000000D+02 -.135937500000D+02  .462340686917D-08 -.222939908513D+00
    -.627711415291D-06  .436670728959D-03  .105872750282D-04  .515366595078D+04
     .403200000000D+06  .819563865662D-07  .264777073188D+01 -.800937414169D-07
     .960450654031D+00  .170875000000D+03  .139111641708D+01 -.798318967475D-08
    -.850749722855D-09  .100000000000D+01  .165900000000D+04  .000000000000D+00
     .340000000000D+01  .000000000000D+00  .791624188423D-08  .550000000000D+02
     .396006000000D+06  .400000000000D+01
